#cV2022  1 26  0  0  0.00000000    1916   SLR   ECF FIT NSGF
## 2194 259200.00000000   180.00000000 59605 0.0000000000000
+    1   L56  0  0  0  0  0  0  0  0  0  0  0  0  0  0  0  0
+          0  0  0  0  0  0  0  0  0  0  0  0  0  0  0  0  0
+          0  0  0  0  0  0  0  0  0  0  0  0  0  0  0  0  0
+          0  0  0  0  0  0  0  0  0  0  0  0  0  0  0  0  0
+          0  0  0  0  0  0  0  0  0  0  0  0  0  0  0  0  0
++         0  0  0  0  0  0  0  0  0  0  0  0  0  0  0  0  0
++         0  0  0  0  0  0  0  0  0  0  0  0  0  0  0  0  0
++         0  0  0  0  0  0  0  0  0  0  0  0  0  0  0  0  0
++         0  0  0  0  0  0  0  0  0  0  0  0  0  0  0  0  0
++         0  0  0  0  0  0  0  0  0  0  0  0  0  0  0  0  0
%c L  cc UTC ccc cccc cccc cccc cccc ccccc ccccc ccccc ccccc
%c cc cc ccc ccc cccc cccc cccc cccc ccccc ccccc ccccc ccccc
%f  0.0000000  0.000000000  0.00000000000  0.000000000000000
%f  0.0000000  0.000000000  0.00000000000  0.000000000000000
%i    0    0    0    0      0      0      0      0         0
%i    0    0    0    0      0      0      0      0         0
/*                                                          
/* Earth-centered-fixed orbital predictions from SGF ILRS AC
/* The underlying ECF frame is that of IERS/ITRF            
/* Note: Solution based on 4-day long arc                   
/*                                                          
*  2022  1 28  3  0  0.00000000
PL56  -4402.232051  -5586.842526   1013.248072
VL56  -6814.451600  18679.482000  72807.409000
*  2022  1 28  3  3  0.00000000
PL56  -4442.799901  -5155.029193   2298.501537
VL56   2365.882300  29121.008000  69582.233000
*  2022  1 28  3  6  0.00000000
PL56  -4316.001131  -4546.000567   3503.640025
VL56  11722.222000  38311.926000  63931.866000
*  2022  1 28  3  9  0.00000000
PL56  -4021.918179  -3785.234030   4586.672649
VL56  20892.175000  45932.668000  56054.790000
*  2022  1 28  3 12  0.00000000
PL56  -3567.178438  -2903.385051   5509.897608
VL56  29513.365000  51729.132000  46227.463000
*  2022  1 28  3 15  0.00000000
PL56  -2964.823200  -1935.029933   6241.210014
VL56  37237.839000  55520.810000  34793.362000
*  2022  1 28  3 18  0.00000000
PL56  -2233.924421   -917.293240   6755.198986
VL56  43745.694000  57205.679000  22150.587000
*  2022  1 28  3 21  0.00000000
PL56  -1398.963506    111.588725   7034.005779
VL56  48757.765000  56762.264000   8737.651400
*  2022  1 28  3 24  0.00000000
PL56   -488.997344   1113.708483   7067.914008
VL56  52046.466000  54248.119000  -4981.681500
*  2022  1 28  3 27  0.00000000
PL56    463.353628   2052.879749   6855.673897
VL56  53444.881000  49796.154000 -18533.030000
*  2022  1 28  3 30  0.00000000
PL56   1423.071544   2895.945261   6404.554043
VL56  52854.618000  43608.782000 -31446.864000
*  2022  1 28  3 33  0.00000000
PL56   2354.025153   3613.955003   5730.115280
VL56  50251.111000  35949.606000 -43273.820000
*  2022  1 28  3 36  0.00000000
PL56   3220.331878   4183.181199   4855.711914
VL56  45686.904000  27133.421000 -53599.890000
*  2022  1 28  3 39  0.00000000
PL56   3987.754624   4585.934636   3811.719970
VL56  39292.002000  17514.170000 -62061.230000
*  2022  1 28  3 42  0.00000000
PL56   4625.076918   4811.148514   2634.510415
VL56  31271.525000   7471.491600 -68357.788000
*  2022  1 28  3 45  0.00000000
PL56   5105.403557   4854.704676   1365.185418
VL56  21898.993000  -2604.947000 -72265.844000
*  2022  1 28  3 48  0.00000000
PL56   5407.314236   4719.477138     48.121001
VL56  11507.259000 -12330.683000 -73646.681000
*  2022  1 28  3 51  0.00000000
PL56   5515.817232   4415.088660  -1270.629013
VL56    475.415840 -21342.795000 -72453.013000
*  2022  1 28  3 54  0.00000000
PL56   5423.045220   3957.387683  -2544.997168
VL56 -10786.610000 -29314.729000 -68730.611000
*  2022  1 28  3 57  0.00000000
PL56   5128.664125   3367.676285  -3730.558247
VL56 -21854.594000 -35969.020000 -62615.531000
*  2022  1 28  4  0  0.00000000
PL56   4639.976005   2671.732413  -4786.107902
VL56 -32307.194000 -41087.278000 -54328.219000
*  2022  1 28  4  3  0.00000000
PL56   3971.715174   1898.676860  -5675.099841
VL56 -41742.621000 -44517.390000 -44163.927000
*  2022  1 28  4  6  0.00000000
PL56   3145.555346   1079.742275  -6366.885037
VL56 -49794.029000 -46177.142000 -32480.525000
*  2022  1 28  4  9  0.00000000
PL56   2189.357418    247.006920  -6837.719303
VL56 -56142.852000 -46054.609000 -19684.963000
*  2022  1 28  4 12  0.00000000
PL56   1136.196035   -567.854381  -7071.517559
VL56 -60530.010000 -44205.962000  -6218.954100
*  2022  1 28  4 15  0.00000000
PL56     23.204815  -1334.758328  -7060.350818
VL56 -62765.002000 -40750.958000   7455.462300
*  2022  1 28  4 18  0.00000000
PL56  -1109.725928  -2026.302294  -6804.679365
VL56 -62732.954000 -35866.469000  20870.534000
*  2022  1 28  4 21  0.00000000
PL56  -2221.356942  -2618.723799  -6313.327495
VL56 -60399.527000 -29778.710000  33567.091000
*  2022  1 28  4 24  0.00000000
PL56  -3270.576691  -3092.707491  -5603.199627
VL56 -55813.505000 -22753.932000  45108.891000
*  2022  1 28  4 27  0.00000000
PL56  -4217.905555  -3434.016799  -4698.744096
VL56 -49107.306000 -15088.396000  55096.304000
*  2022  1 28  4 30  0.00000000
PL56  -5026.985443  -3633.932235  -3631.164257
VL56 -40494.634000  -7096.858500  63180.599000
*  2022  1 28  4 33  0.00000000
PL56  -5665.995745  -3689.474867  -2437.387717
VL56 -30264.763000    899.687980  69076.553000
*  2022  1 28  4 36  0.00000000
PL56  -6108.937621  -3603.403755  -1158.817461
VL56 -18773.473000   8586.840800  72573.822000
*  2022  1 28  4 39  0.00000000
PL56  -6336.724442  -3383.982131    160.099258
VL56  -6430.696700  15669.511000  73545.709000
*  2022  1 28  4 42  0.00000000
PL56  -6338.023277  -3044.519373   1473.433557
VL56   6314.693600  21883.992000  71954.969000
*  2022  1 28  4 45  0.00000000
PL56  -6109.799343  -2602.706949   2735.410198
VL56  18992.697000  27008.767000  67855.911000
*  2022  1 28  4 48  0.00000000
PL56  -5657.528927  -2079.778416   3902.041117
VL56  31130.747000  30872.993000  61392.140000
*  2022  1 28  4 51  0.00000000
PL56  -4995.075199  -1499.537980   4932.687630
VL56  42272.706000  33362.711000  52790.912000
*  2022  1 28  4 54  0.00000000
PL56  -4144.231345   -887.304383   5791.485215
VL56  51996.323000  34423.839000  42353.673000
*  2022  1 28  4 57  0.00000000
PL56  -3133.965542   -268.825766   6448.579777
VL56  59929.117000  34062.610000  30444.774000
*  2022  1 28  5  0  0.00000000
PL56  -1999.398041    330.790039   6881.144173
VL56  65762.076000  32343.316000  17478.222000
*  2022  1 28  5  3  0.00000000
PL56   -780.551579    888.082488   7074.141105
VL56  69261.080000  29383.778000   3903.158900
*  2022  1 28  5  6  0.00000000
PL56    479.071234   1382.145962   7020.821301
VL56  70274.844000  25348.907000  -9811.177600
*  2022  1 28  5  9  0.00000000
PL56   1734.038725   1795.411290   6722.951565
VL56  68741.063000  20443.083000 -23190.390000
*  2022  1 28  5 12  0.00000000
PL56   2938.624927   2114.274847   6190.767925
VL56  64689.663000  14900.935000 -35770.362000
*  2022  1 28  5 15  0.00000000
PL56   4048.479742   2329.554538   5442.654294
VL56  58243.476000   8977.371500 -47112.456000
*  2022  1 28  5 18  0.00000000
PL56   5022.282359   2436.758979   4504.546126
VL56  49615.498000   2936.873000 -56818.677000
*  2022  1 28  5 21  0.00000000
PL56   5823.318215   2436.161136   3409.069100
VL56  39103.324000  -2957.563000 -64546.008000
*  2022  1 28  5 24  0.00000000
PL56   6420.920454   2332.668634   2194.422072
VL56  27079.397000  -8455.809700 -70020.237000
*  2022  1 28  5 27  0.00000000
PL56   6791.699164   2135.493537    903.039357
VL56  13977.384000 -13331.500000 -73046.930000
*  2022  1 28  5 30  0.00000000
PL56   6920.503848   1857.635358   -419.921887
VL56    275.908830 -17391.722000 -73518.956000
*  2022  1 28  5 33  0.00000000
PL56   6801.060133   1515.200932  -1728.210586
VL56 -13520.709000 -20485.300000 -71421.985000
*  2022  1 28  5 36  0.00000000
PL56   6436.249520   1126.594097  -2976.150160
VL56 -26902.737000 -22509.008000 -66834.104000
*  2022  1 28  5 39  0.00000000
PL56   5838.022785    711.616767  -4120.277290
VL56 -39375.696000 -23411.109000 -59922.172000
*  2022  1 28  5 42  0.00000000
PL56   5026.948401    290.530353  -5120.879268
VL56 -50479.689000 -23192.211000 -50934.461000
*  2022  1 28  5 45  0.00000000
PL56   4031.429787   -116.874938  -5943.363973
VL56 -59806.582000 -21903.556000 -40189.721000
*  2022  1 28  5 48  0.00000000
PL56   2886.642214   -492.158104  -6559.418851
VL56 -67014.232000 -19643.000000 -28064.749000
*  2022  1 28  5 51  0.00000000
PL56   1633.238797   -819.016661  -6947.932451
VL56 -71837.763000 -16549.195000 -14980.419000
*  2022  1 28  5 54  0.00000000
PL56    315.882722  -1083.957801  -7095.658021
VL56 -74097.622000 -12794.368000  -1387.322200
*  2022  1 28  5 57  0.00000000
PL56  -1018.342154  -1276.828805  -6997.617635
VL56 -73705.028000  -8575.944200  12248.801000
*  2022  1 28  6  0  0.00000000
PL56  -2321.593307  -1391.191183  -6657.244243
VL56 -70664.715000  -4107.661400  25461.590000
*  2022  1 28  6  3  0.00000000
PL56  -3546.957424  -1424.530122  -6086.263159
VL56 -65074.956000    389.823460  37798.334000
*  2022  1 28  6  6  0.00000000
PL56  -4650.115700  -1378.293755  -5304.318157
VL56 -57125.288000   4698.383300  48834.219000
*  2022  1 28  6  9  0.00000000
PL56  -5590.946819  -1257.763150  -4338.346341
VL56 -47091.400000   8611.844000  58186.109000
*  2022  1 28  6 12  0.00000000
PL56  -6335.010873  -1071.754981  -3221.702415
VL56 -35327.217000  11945.010000  65526.217000
*  2022  1 28  6 15  0.00000000
PL56  -6854.857297   -832.166478  -1993.048954
VL56 -22253.231000  14542.109000  70594.511000
*  2022  1 28  6 18  0.00000000
PL56  -7131.096285   -553.378791   -695.038201
VL56  -8341.908300  16283.996000  73209.280000
*  2022  1 28  6 21  0.00000000
PL56  -7153.178905   -251.542736    627.174340
VL56   5900.101900  17094.028000  73275.185000
EOF
